{"type": "FeatureCollection", "features": [{"type": "Feature", "properties": {"center_lat": 21.147734, "center_lng": 79.091461, "count": 3210, "half_m": 400}, "geometry": {"type": "Polygon", "coordinates": [[[79.08760829156921, 21.14414027586078], [79.09531371590742, 21.14414027586078], [79.09531371590742, 21.15132676526071], [79.08760829156921, 21.15132676526071], [79.08760829156921, 21.14414027586078]]]}}, {"type": "Feature", "properties": {"center_lat": 21.133925, "center_lng": 79.111903, "count": 3056, "half_m": 400}, "geometry": {"type": "Polygon", "coordinates": [[[79.10805052219332, 21.130331539004224], [79.11575522846114, 21.130331539004224], [79.11575522846114, 21.137518028404152], [79.10805052219332, 21.137518028404152], [79.10805052219332, 21.130331539004224]]]}}, {"type": "Feature", "properties": {"center_lat": 21.161676, "center_lng": 79.077706, "count": 2730, "half_m": 400}, "geometry": {"type": "Polygon", "coordinates": [[[79.0738533316114, 21.15808296006194], [79.08155948157541, 21.15808296006194], [79.08155948157541, 21.165269449461867], [79.0738533316114, 21.165269449461867], [79.0738533316114, 21.15808296006194]]]}}, {"type": "Feature", "properties": {"center_lat": 21.111824, "center_lng": 79.058664, "count": 2118, "half_m": 400}, "geometry": {"type": "Polygon", "coordinates": [[[79.05481234175717, 21.108230990427515], [79.06251589998028, 21.108230990427515], [79.06251589998028, 21.115417479827443], [79.05481234175717, 21.115417479827443], [79.05481234175717, 21.108230990427515]]]}}, {"type": "Feature", "properties": {"center_lat": 21.100466, "center_lng": 79.049091, "count": 1025, "half_m": 400}, "geometry": {"type": "Polygon", "coordinates": [[[79.04523957901345, 21.09687314456833], [79.05294254781582, 21.09687314456833], [79.05294254781582, 21.10405963396826], [79.04523957901345, 21.10405963396826], [79.04523957901345, 21.09687314456833]]]}}, {"type": "Feature", "properties": {"center_lat": 21.190438, "center_lng": 79.049109, "count": 972, "half_m": 400}, "geometry": {"type": "Polygon", "coordinates": [[[79.04525498635152, 21.186844645217732], [79.05296263504766, 21.186844645217732], [79.05296263504766, 21.19403113461766], [79.04525498635152, 21.19403113461766], [79.04525498635152, 21.186844645217732]]]}}, {"type": "Feature", "properties": {"center_lat": 21.087165, "center_lng": 79.068077, "count": 934, "half_m": 400}, "geometry": {"type": "Polygon", "coordinates": [[[79.06422552857559, 21.083572089347147], [79.07192780761288, 21.083572089347147], [79.07192780761288, 21.090758578747074], [79.06422552857559, 21.090758578747074], [79.06422552857559, 21.083572089347147]]]}}, {"type": "Feature", "properties": {"center_lat": 21.161362, "center_lng": 79.10835, "count": 805, "half_m": 400}, "geometry": {"type": "Polygon", "coordinates": [[[79.10449670462457, 21.15776880995842], [79.11220283823259, 21.15776880995842], [79.11220283823259, 21.164955299358347], [79.10449670462457, 21.164955299358347], [79.10449670462457, 21.15776880995842]]]}}, {"type": "Feature", "properties": {"center_lat": 21.121443, "center_lng": 79.07967, "count": 618, "half_m": 400}, "geometry": {"type": "Polygon", "coordinates": [[[79.07581776889077, 21.117849504490973], [79.08352182657848, 21.117849504490973], [79.08352182657848, 21.1250359938909], [79.07581776889077, 21.1250359938909], [79.07581776889077, 21.117849504490973]]]}}, {"type": "Feature", "properties": {"center_lat": 21.182968, "center_lng": 79.06018, "count": 610, "half_m": 400}, "geometry": {"type": "Polygon", "coordinates": [[[79.05632685564261, 21.179374735627903], [79.0640341148492, 21.179374735627903], [79.0640341148492, 21.18656122502783], [79.05632685564261, 21.18656122502783], [79.05632685564261, 21.179374735627903]]]}}, {"type": "Feature", "properties": {"center_lat": 21.070881, "center_lng": 79.017044, "count": 523, "half_m": 400}, "geometry": {"type": "Polygon", "coordinates": [[[79.01319315424887, 21.06728754879908], [79.02089458953695, 21.06728754879908], [79.02089458953695, 21.074474038199007], [79.01319315424887, 21.074474038199007], [79.01319315424887, 21.06728754879908]]]}}, {"type": "Feature", "properties": {"center_lat": 21.065657, "center_lng": 79.024472, "count": 462, "half_m": 387}, "geometry": {"type": "Polygon", "coordinates": [[[79.02074627798105, 21.06218043835019], [79.02819715491937, 21.06218043835019], [79.02819715491937, 21.069133366844618], [79.02074627798105, 21.069133366844618], [79.02074627798105, 21.06218043835019]]]}}, {"type": "Feature", "properties": {"center_lat": 21.176247, "center_lng": 79.062198, "count": 364, "half_m": 353}, "geometry": {"type": "Polygon", "coordinates": [[[79.05879718358078, 21.17307615111272], [79.06559853070492, 21.17307615111272], [79.06559853070492, 21.179418228008156], [79.05879718358078, 21.179418228008156], [79.05879718358078, 21.17307615111272]]]}}, {"type": "Feature", "properties": {"center_lat": 21.115332, "center_lng": 79.076042, "count": 306, "half_m": 330}, "geometry": {"type": "Polygon", "coordinates": [[[79.07286469076716, 21.11236770710946], [79.07922027655307, 21.11236770710946], [79.07922027655307, 21.118296560864398], [79.07286469076716, 21.118296560864398], [79.07286469076716, 21.11236770710946]]]}}, {"type": "Feature", "properties": {"center_lat": 21.151572, "center_lng": 79.061631, "count": 248, "half_m": 305}, "geometry": {"type": "Polygon", "coordinates": [[[79.05869273889552, 21.14883220736789], [79.0645682772335, 21.14883220736789], [79.0645682772335, 21.154311905535337], [79.05869273889552, 21.154311905535337], [79.05869273889552, 21.14883220736789]]]}}, {"type": "Feature", "properties": {"center_lat": 21.155001, "center_lng": 79.113152, "count": 187, "half_m": 275}, "geometry": {"type": "Polygon", "coordinates": [[[79.11050302343847, 21.152530868867707], [79.11580076265778, 21.152530868867707], [79.11580076265778, 21.15747158033016], [79.11050302343847, 21.15747158033016], [79.11050302343847, 21.152530868867707]]]}}, {"type": "Feature", "properties": {"center_lat": 21.091747, "center_lng": 79.071408, "count": 11, "half_m": 127}, "geometry": {"type": "Polygon", "coordinates": [[[79.0701854982237, 21.09060587208049], [79.07263104723087, 21.09060587208049], [79.07263104723087, 21.09288758246497], [79.0701854982237, 21.09288758246497], [79.0701854982237, 21.09060587208049]]]}}, {"type": "Feature", "properties": {"center_lat": 21.148447, "center_lng": 79.071802, "count": 8, "half_m": 120}, "geometry": {"type": "Polygon", "coordinates": [[[79.07064655577969, 21.147369276590016], [79.07295819422032, 21.147369276590016], [79.07295819422032, 21.14952522340999], [79.07064655577969, 21.14952522340999], [79.07064655577969, 21.147369276590016]]]}}, {"type": "Feature", "properties": {"center_lat": 21.100293, "center_lng": 79.055681, "count": 7, "half_m": 117}, "geometry": {"type": "Polygon", "coordinates": [[[79.0545541564128, 21.099242118782403], [79.05680727215862, 21.099242118782403], [79.05680727215862, 21.101344166931884], [79.0545541564128, 21.101344166931884], [79.0545541564128, 21.099242118782403]]]}}]}