{"type": "FeatureCollection", "features": [{"type": "Feature", "properties": {"center_lat": 21.068679337071647, "center_lng": 79.02054073582553, "count": 1605, "half_m": 180}, "geometry": {"type": "Polygon", "coordinates": [[[79.01880793853614, 21.067062376956663], [79.02227353311493, 21.067062376956663], [79.02227353311493, 21.07029629718663], [79.01880793853614, 21.07029629718663], [79.01880793853614, 21.067062376956663]]]}}, {"type": "Feature", "properties": {"center_lat": 21.107992092252395, "center_lng": 79.05545016932908, "count": 5008, "half_m": 180}, "geometry": {"type": "Polygon", "coordinates": [[[79.0537169134847, 21.106375132137412], [79.05718342517345, 21.106375132137412], [79.05718342517345, 21.10960905236738], [79.0537169134847, 21.10960905236738], [79.0537169134847, 21.106375132137412]]]}}, {"type": "Feature", "properties": {"center_lat": 21.148705343424048, "center_lng": 79.0948780917156, "count": 16682, "half_m": 180}, "geometry": {"type": "Polygon", "coordinates": [[[79.093144359864, 21.147088383309065], [79.0966118235672, 21.147088383309065], [79.0966118235672, 21.15032230353903], [79.093144359864, 21.15032230353903], [79.093144359864, 21.147088383309065]]]}}, {"type": "Feature", "properties": {"center_lat": 21.18570292421991, "center_lng": 79.05483017265973, "count": 3365, "half_m": 180}, "geometry": {"type": "Polygon", "coordinates": [[[79.05309600725701, 21.184085964104927], [79.05656433806246, 21.184085964104927], [79.05656433806246, 21.187319884334894], [79.05309600725701, 21.187319884334894], [79.05309600725701, 21.184085964104927]]]}}, {"type": "Feature", "properties": {"center_lat": 21.119582281716415, "center_lng": 79.07869582089552, "count": 1608, "half_m": 180}, "geometry": {"type": "Polygon", "coordinates": [[[79.07696242965783, 21.11796532160143], [79.08042921213321, 21.11796532160143], [79.08042921213321, 21.1211992418314], [79.07696242965783, 21.1211992418314], [79.07696242965783, 21.11796532160143]]]}}, {"type": "Feature", "properties": {"center_lat": 21.087714261031696, "center_lng": 79.06834840087011, "count": 1609, "half_m": 180}, "geometry": {"type": "Polygon", "coordinates": [[[79.06661538168422, 21.086097300916713], [79.070081420056, 21.086097300916713], [79.070081420056, 21.08933122114668], [79.06661538168422, 21.08933122114668], [79.06661538168422, 21.086097300916713]]]}}, {"type": "Feature", "properties": {"center_lat": 21.109720333333332, "center_lng": 79.078706, "count": 3, "half_m": 80}, "geometry": {"type": "Polygon", "coordinates": [[[79.07793565509895, 21.109001684393338], [79.07947634490104, 21.109001684393338], [79.07947634490104, 21.110438982273326], [79.07793565509895, 21.110438982273326], [79.07793565509895, 21.109001684393338]]]}}, {"type": "Feature", "properties": {"center_lat": 21.16918025, "center_lng": 79.10353775, "count": 4, "half_m": 94}, "geometry": {"type": "Polygon", "coordinates": [[[79.10262969551394, 21.16833347267751], [79.10444580448606, 21.16833347267751], [79.10444580448606, 21.17002702732249], [79.10262969551394, 21.17002702732249], [79.10262969551394, 21.16833347267751]]]}}, {"type": "Feature", "properties": {"center_lat": 21.125504999999997, "center_lng": 79.088655, "count": 2, "half_m": 80}, "geometry": {"type": "Polygon", "coordinates": [[[79.08788457312855, 21.124786351060003], [79.08942542687146, 21.124786351060003], [79.08942542687146, 21.12622364893999], [79.08788457312855, 21.12622364893999], [79.08788457312855, 21.124786351060003]]]}}, {"type": "Feature", "properties": {"center_lat": 21.09371475, "center_lng": 79.04236325, "count": 4, "half_m": 87}, "geometry": {"type": "Polygon", "coordinates": [[[79.04151794887038, 21.092926089946054], [79.04320855112961, 21.092926089946054], [79.04320855112961, 21.094503410053946], [79.04151794887038, 21.094503410053946], [79.04151794887038, 21.092926089946054]]]}}, {"type": "Feature", "properties": {"center_lat": 21.1726515, "center_lng": 79.055054, "count": 2, "half_m": 80}, "geometry": {"type": "Polygon", "coordinates": [[[79.05428332784263, 21.171932851060006], [79.05582467215737, 21.171932851060006], [79.05582467215737, 21.173370148939995], [79.05428332784263, 21.173370148939995], [79.05428332784263, 21.171932851060006]]]}}, {"type": "Feature", "properties": {"center_lat": 21.120842500000002, "center_lng": 79.10092725, "count": 4, "half_m": 80}, "geometry": {"type": "Polygon", "coordinates": [[[79.100156847349, 21.120123851060008], [79.101697652651, 21.120123851060008], [79.101697652651, 21.121561148939996], [79.100156847349, 21.121561148939996], [79.100156847349, 21.120123851060008]]]}}, {"type": "Feature", "properties": {"center_lat": 21.128073, "center_lng": 79.086993, "count": 2, "half_m": 80}, "geometry": {"type": "Polygon", "coordinates": [[[79.08622255978564, 21.127354351060006], [79.08776344021437, 21.127354351060006], [79.08776344021437, 21.128791648939995], [79.08622255978564, 21.128791648939995], [79.08622255978564, 21.127354351060006]]]}}, {"type": "Feature", "properties": {"center_lat": 21.06163, "center_lng": 79.011668, "count": 2, "half_m": 80}, "geometry": {"type": "Polygon", "coordinates": [[[79.01089790436629, 21.060911351060007], [79.01243809563371, 21.060911351060007], [79.01243809563371, 21.062348648939995], [79.01089790436629, 21.062348648939995], [79.01089790436629, 21.060911351060007]]]}}, {"type": "Feature", "properties": {"center_lat": 21.083343, "center_lng": 79.0598435, "count": 2, "half_m": 80}, "geometry": {"type": "Polygon", "coordinates": [[[79.05907329190813, 21.082624351060005], [79.06061370809186, 21.082624351060005], [79.06061370809186, 21.084061648939993], [79.05907329190813, 21.084061648939993], [79.05907329190813, 21.082624351060005]]]}}, {"type": "Feature", "properties": {"center_lat": 21.158413000000003, "center_lng": 79.11917199999999, "count": 2, "half_m": 80}, "geometry": {"type": "Polygon", "coordinates": [[[79.11840140199176, 21.15769435106001], [79.11994259800822, 21.15769435106001], [79.11994259800822, 21.159131648939997], [79.11840140199176, 21.159131648939997], [79.11840140199176, 21.15769435106001]]]}}, {"type": "Feature", "properties": {"center_lat": 21.08701, "center_lng": 79.0609755, "count": 2, "half_m": 80}, "geometry": {"type": "Polygon", "coordinates": [[[79.06020527290148, 21.086291351060005], [79.06174572709851, 21.086291351060005], [79.06174572709851, 21.087728648939994], [79.06020527290148, 21.087728648939994], [79.06020527290148, 21.086291351060005]]]}}, {"type": "Feature", "properties": {"center_lat": 21.077694, "center_lng": 79.070431, "count": 2, "half_m": 80}, "geometry": {"type": "Polygon", "coordinates": [[[79.06966082117981, 21.076975351060007], [79.07120117882019, 21.076975351060007], [79.07120117882019, 21.078412648939995], [79.06966082117981, 21.078412648939995], [79.06966082117981, 21.076975351060007]]]}}, {"type": "Feature", "properties": {"center_lat": 21.1055225, "center_lng": 79.070198, "count": 2, "half_m": 80}, "geometry": {"type": "Polygon", "coordinates": [[[79.0694276768857, 21.104803851060005], [79.07096832311431, 21.104803851060005], [79.07096832311431, 21.106241148939993], [79.0694276768857, 21.106241148939993], [79.0694276768857, 21.104803851060005]]]}}, {"type": "Feature", "properties": {"center_lat": 21.1240375, "center_lng": 79.1235365, "count": 2, "half_m": 80}, "geometry": {"type": "Polygon", "coordinates": [[[79.12276608075253, 21.123318851060006], [79.12430691924747, 21.123318851060006], [79.12430691924747, 21.124756148939994], [79.12276608075253, 21.124756148939994], [79.12276608075253, 21.123318851060006]]]}}]}